{
  "type": "FeatureCollection",
  "features": [
    {
      "type": "Feature",
      "properties": {
        "norad_id": 66407,
        "name": "STARLINK-35686",
        "group": "last-30-days",
        "lat": 18.495095505436282,
        "lon": 106.32454694256,
        "alt_km": 416.23074636260753,
        "timestamp": "2025-12-04T23:34:04.489777+00:00",
        "meta_object_name": "STARLINK-35686",
        "meta_object_id": "2025-257AD",
        "meta_epoch": "2025-12-04T15:09:17.307648",
        "meta_mean_motion": 15.49354281,
        "meta_eccentricity": 0.0001432,
        "meta_inclination": 53.1591,
        "meta_ra_of_asc_node": 302.5257,
        "meta_arg_of_pericenter": 80.3679,
        "meta_mean_anomaly": 279.7491,
        "meta_ephemeris_type": 0,
        "meta_classification_type": "U",
        "meta_norad_cat_id": 66407,
        "meta_element_set_no": 999,
        "meta_rev_at_epoch": 512,
        "meta_bstar": 0.0030392,
        "meta_mean_motion_dot": 0.00172642,
        "meta_mean_motion_ddot": 0,
        "tle_line1": "1 66407U 25257AD  25338.63145032  .00172642  00000+0  30392-2 0  9999",
        "tle_line2": "2 66407  53.1591 302.5257 0001432  80.3679 279.7491 15.49354281  5125"
      },
      "geometry": {
        "type": "Point",
        "coordinates": [
          106.32454694256,
          18.495095505436282
        ]
      }
    },
    {
      "type": "Feature",
      "properties": {
        "norad_id": 66408,
        "name": "STARLINK-35679",
        "group": "last-30-days",
        "lat": 16.928850877341603,
        "lon": 107.65443129442603,
        "alt_km": 416.4906876589421,
        "timestamp": "2025-12-04T23:34:04.489786+00:00",
        "meta_object_name": "STARLINK-35679",
        "meta_object_id": "2025-257AE",
        "meta_epoch": "2025-12-04T10:30:06.854112",
        "meta_mean_motion": 15.49361629,
        "meta_eccentricity": 0.0001443,
        "meta_inclination": 53.1595,
        "meta_ra_of_asc_node": 303.4498,
        "meta_arg_of_pericenter": 80.5136,
        "meta_mean_anomaly": 279.6036,
        "meta_ephemeris_type": 0,
        "meta_classification_type": "U",
        "meta_norad_cat_id": 66408,
        "meta_element_set_no": 999,
        "meta_rev_at_epoch": 509,
        "meta_bstar": 0.0018523,
        "meta_mean_motion_dot": 0.00104147,
        "meta_mean_motion_ddot": 0,
        "tle_line1": "1 66408U 25257AE  25338.43757933  .00104147  00000+0  18523-2 0  9994",
        "tle_line2": "2 66408  53.1595 303.4498 0001443  80.5136 279.6036 15.49361629  5093"
      },
      "geometry": {
        "type": "Point",
        "coordinates": [
          107.65443129442603,
          16.928850877341603
        ]
      }
    },
    {
      "type": "Feature",
      "properties": {
        "norad_id": 66409,
        "name": "CHUTIAN-2 A",
        "group": "last-30-days",
        "lat": -74.05001564127772,
        "lon": 74.4991802425757,
        "alt_km": 731.9819328819995,
        "timestamp": "2025-12-04T23:34:04.489799+00:00",
        "meta_object_name": "CHUTIAN-2 A",
        "meta_object_id": "2025-256A",
        "meta_epoch": "2025-12-04T18:57:04.245408",
        "meta_mean_motion": 14.49919613,
        "meta_eccentricity": 0.0013392,
        "meta_inclination": 98.2767,
        "meta_ra_of_asc_node": 43.6917,
        "meta_arg_of_pericenter": 201.6703,
        "meta_mean_anomaly": 158.3926,
        "meta_ephemeris_type": 0,
        "meta_classification_type": "U",
        "meta_norad_cat_id": 66409,
        "meta_element_set_no": 999,
        "meta_rev_at_epoch": 372,
        "meta_bstar": 4.8781e-05,
        "meta_mean_motion_dot": 1.45e-06,
        "meta_mean_motion_ddot": 0,
        "tle_line1": "1 66409U 25256A   25338.78963247  .00000145  00000+0  48781-4 0  9993",
        "tle_line2": "2 66409  98.2767  43.6917 0013392 201.6703 158.3926 14.49919613  3726"
      },
      "geometry": {
        "type": "Point",
        "coordinates": [
          74.4991802425757,
          -74.05001564127772
        ]
      }
    },
    {
      "type": "Feature",
      "properties": {
        "norad_id": 66410,
        "name": "CHUTIAN-2 B",
        "group": "last-30-days",
        "lat": -9.570214235000648,
        "lon": 45.32318308997038,
        "alt_km": 734.2542242016889,
        "timestamp": "2025-12-04T23:34:04.489810+00:00",
        "meta_object_name": "CHUTIAN-2 B",
        "meta_object_id": "2025-256B",
        "meta_epoch": "2025-12-04T18:38:50.985600",
        "meta_mean_motion": 14.51009595,
        "meta_eccentricity": 0.0013345,
        "meta_inclination": 98.2801,
        "meta_ra_of_asc_node": 43.7145,
        "meta_arg_of_pericenter": 205.9189,
        "meta_mean_anomaly": 154.1338,
        "meta_ephemeris_type": 0,
        "meta_classification_type": "U",
        "meta_norad_cat_id": 66410,
        "meta_element_set_no": 999,
        "meta_rev_at_epoch": 372,
        "meta_bstar": 0.0003323,
        "meta_mean_motion_dot": 1.272e-05,
        "meta_mean_motion_ddot": 0,
        "tle_line1": "1 66410U 25256B   25338.77697900  .00001272  00000+0  33230-3 0  9998",
        "tle_line2": "2 66410  98.2801  43.7145 0013345 205.9189 154.1338 14.51009595  3727"
      },
      "geometry": {
        "type": "Point",
        "coordinates": [
          45.32318308997038,
          -9.570214235000648
        ]
      }
    },
    {
      "type": "Feature",
      "properties": {
        "norad_id": 66411,
        "name": "ZK-1A R/B",
        "group": "last-30-days",
        "lat": -19.00784557777013,
        "lon": 49.09216199977286,
        "alt_km": 509.17127970877664,
        "timestamp": "2025-12-04T23:34:04.489820+00:00",
        "meta_object_name": "ZK-1A R/B",
        "meta_object_id": "2025-256C",
        "meta_epoch": "2025-12-04T15:39:23.822784",
        "meta_mean_motion": 15.0167971,
        "meta_eccentricity": 0.0229312,
        "meta_inclination": 98.3247,
        "meta_ra_of_asc_node": 45.8472,
        "meta_arg_of_pericenter": 271.9995,
        "meta_mean_anomaly": 85.4983,
        "meta_ephemeris_type": 0,
        "meta_classification_type": "U",
        "meta_norad_cat_id": 66411,
        "meta_element_set_no": 999,
        "meta_rev_at_epoch": 383,
        "meta_bstar": 0.0010702,
        "meta_mean_motion_dot": 0.00024635,
        "meta_mean_motion_ddot": 0,
        "tle_line1": "1 66411U 25256C   25338.65235906  .00024635  00000+0  10702-2 0  9996",
        "tle_line2": "2 66411  98.3247  45.8472 0229312 271.9995  85.4983 15.01679710  3832"
      },
      "geometry": {
        "type": "Point",
        "coordinates": [
          49.09216199977286,
          -19.00784557777013
        ]
      }
    },
    {
      "type": "Feature",
      "properties": {
        "norad_id": 66412,
        "name": "HULIANWANG DIGUI 13A",
        "group": "last-30-days",
        "lat": -15.880226431943598,
        "lon": -79.19145671178595,
        "alt_km": 805.9052405116236,
        "timestamp": "2025-12-04T23:34:04.489830+00:00",
        "meta_object_name": "HULIANWANG DIGUI 13A",
        "meta_object_id": "2025-258A",
        "meta_epoch": "2025-12-04T15:14:28.986144",
        "meta_mean_motion": 14.23493388,
        "meta_eccentricity": 0.00140766,
        "meta_inclination": 50.0043,
        "meta_ra_of_asc_node": 296.086,
        "meta_arg_of_pericenter": 329.1649,
        "meta_mean_anomaly": 30.8436,
        "meta_ephemeris_type": 0,
        "meta_classification_type": "U",
        "meta_norad_cat_id": 66412,
        "meta_element_set_no": 999,
        "meta_rev_at_epoch": 350,
        "meta_bstar": 0.00012213647,
        "meta_mean_motion_dot": 1.2e-06,
        "meta_mean_motion_ddot": 0,
        "tle_line1": "1 66412U 25258A   25338.63505771  .00000120  00000+0  12214-3 0  9991",
        "tle_line2": "2 66412  50.0043 296.0860 0014076 329.1649  30.8436 14.23493388  3503"
      },
      "geometry": {
        "type": "Point",
        "coordinates": [
          -79.19145671178595,
          -15.880226431943598
        ]
      }
    },
    {
      "type": "Feature",
      "properties": {
        "norad_id": 66413,
        "name": "HULIANWANG DIGUI 13B",
        "group": "last-30-days",
        "lat": -41.72015024063042,
        "lon": -113.78116768426672,
        "alt_km": 809.5195336790703,
        "timestamp": "2025-12-04T23:34:04.489841+00:00",
        "meta_object_name": "HULIANWANG DIGUI 13B",
        "meta_object_id": "2025-258B",
        "meta_epoch": "2025-12-04T15:25:31.725984",
        "meta_mean_motion": 14.23484219,
        "meta_eccentricity": 0.00134086,
        "meta_inclination": 50.0006,
        "meta_ra_of_asc_node": 296.1162,
        "meta_arg_of_pericenter": 330.0056,
        "meta_mean_anomaly": 30.0087,
        "meta_ephemeris_type": 0,
        "meta_classification_type": "U",
        "meta_norad_cat_id": 66413,
        "meta_element_set_no": 999,
        "meta_rev_at_epoch": 350,
        "meta_bstar": 0.00014276602,
        "meta_mean_motion_dot": 1.68e-06,
        "meta_mean_motion_ddot": 0,
        "tle_line1": "1 66413U 25258B   25338.64272831  .00000168  00000+0  14277-3 0  9994",
        "tle_line2": "2 66413  50.0006 296.1162 0013408 330.0056  30.0087 14.23484219  3507"
      },
      "geometry": {
        "type": "Point",
        "coordinates": [
          -113.78116768426672,
          -41.72015024063042
        ]
      }
    }
  ]
}